[
  {"name": "Abbotsford", "postcode": "3067", "region": "Inner Melbourne"},
  {"name": "Aberfeldie", "postcode": "3040", "region": "Western Melbourne"},
  {"name": "Airport West", "postcode": "3042", "region": "Western Melbourne"},
  {"name": "Albert Park", "postcode": "3206", "region": "Inner Melbourne"},
  {"name": "Alphington", "postcode": "3078", "region": "Inner Melbourne"},
  {"name": "Altona", "postcode": "3018", "region": "Western Melbourne"},
  {"name": "Altona Meadows", "postcode": "3028", "region": "Western Melbourne"},
  {"name": "Altona North", "postcode": "3025", "region": "Western Melbourne"},
  {"name": "Ardeer", "postcode": "3022", "region": "Western Melbourne"},
  {"name": "Armadale", "postcode": "3143", "region": "Inner Melbourne"},
  {"name": "Ascot Vale", "postcode": "3032", "region": "Inner Melbourne"},
  {"name": "Ashburton", "postcode": "3147", "region": "Eastern Melbourne"},
  {"name": "Ashwood", "postcode": "3147", "region": "Eastern Melbourne"},
  {"name": "Aspendale", "postcode": "3195", "region": "Bayside"},
  {"name": "Aspendale Gardens", "postcode": "3195", "region": "Bayside"},
  {"name": "Avondale Heights", "postcode": "3034", "region": "Western Melbourne"},
  {"name": "Balaclava", "postcode": "3183", "region": "Inner Melbourne"},
  {"name": "Balwyn", "postcode": "3103", "region": "Eastern Melbourne"},
  {"name": "Balwyn North", "postcode": "3104", "region": "Eastern Melbourne"},
  {"name": "Bangholme", "postcode": "3175", "region": "South Eastern Melbourne"},
  {"name": "Bayswater", "postcode": "3153", "region": "Eastern Melbourne"},
  {"name": "Bayswater North", "postcode": "3153", "region": "Eastern Melbourne"},
  {"name": "Beaumaris", "postcode": "3193", "region": "Bayside"},
  {"name": "Bentleigh", "postcode": "3204", "region": "Bayside"},
  {"name": "Bentleigh East", "postcode": "3165", "region": "Bayside"},
  {"name": "Berwick", "postcode": "3806", "region": "South Eastern Melbourne"},
  {"name": "Black Rock", "postcode": "3193", "region": "Bayside"},
  {"name": "Blackburn", "postcode": "3130", "region": "Eastern Melbourne"},
  {"name": "Blackburn North", "postcode": "3130", "region": "Eastern Melbourne"},
  {"name": "Blackburn South", "postcode": "3130", "region": "Eastern Melbourne"},
  {"name": "Bonbeach", "postcode": "3196", "region": "Bayside"},
  {"name": "Boronia", "postcode": "3155", "region": "Eastern Melbourne"},
  {"name": "Box Hill", "postcode": "3128", "region": "Eastern Melbourne"},
  {"name": "Box Hill North", "postcode": "3129", "region": "Eastern Melbourne"},
  {"name": "Box Hill South", "postcode": "3128", "region": "Eastern Melbourne"},
  {"name": "Braeside", "postcode": "3195", "region": "South Eastern Melbourne"},
  {"name": "Braybrook", "postcode": "3019", "region": "Western Melbourne"},
  {"name": "Brighton", "postcode": "3186", "region": "Bayside"},
  {"name": "Brighton East", "postcode": "3187", "region": "Bayside"},
  {"name": "Broadmeadows", "postcode": "3047", "region": "Northern Melbourne"},
  {"name": "Brunswick", "postcode": "3056", "region": "Inner Melbourne"},
  {"name": "Brunswick East", "postcode": "3057", "region": "Inner Melbourne"},
  {"name": "Brunswick West", "postcode": "3055", "region": "Inner Melbourne"},
  {"name": "Bulla", "postcode": "3428", "region": "Northern Melbourne"},
  {"name": "Bulleen", "postcode": "3105", "region": "Eastern Melbourne"},
  {"name": "Bundoora", "postcode": "3083", "region": "Northern Melbourne"},
  {"name": "Burwood", "postcode": "3125", "region": "Eastern Melbourne"},
  {"name": "Burwood East", "postcode": "3151", "region": "Eastern Melbourne"},
  {"name": "Camberwell", "postcode": "3124", "region": "Eastern Melbourne"},
  {"name": "Campbellfield", "postcode": "3061", "region": "Northern Melbourne"},
  {"name": "Canterbury", "postcode": "3126", "region": "Eastern Melbourne"},
  {"name": "Carlton", "postcode": "3053", "region": "Inner Melbourne"},
  {"name": "Carlton North", "postcode": "3054", "region": "Inner Melbourne"},
  {"name": "Carnegie", "postcode": "3163", "region": "South Eastern Melbourne"},
  {"name": "Caroline Springs", "postcode": "3023", "region": "Western Melbourne"},
  {"name": "Carrum", "postcode": "3197", "region": "Bayside"},
  {"name": "Carrum Downs", "postcode": "3201", "region": "South Eastern Melbourne"},
  {"name": "Caulfield", "postcode": "3162", "region": "South Eastern Melbourne"},
  {"name": "Caulfield East", "postcode": "3145", "region": "South Eastern Melbourne"},
  {"name": "Caulfield North", "postcode": "3161", "region": "South Eastern Melbourne"},
  {"name": "Caulfield South", "postcode": "3162", "region": "South Eastern Melbourne"},
  {"name": "Chadstone", "postcode": "3148", "region": "South Eastern Melbourne"},
  {"name": "Chelsea", "postcode": "3196", "region": "Bayside"},
  {"name": "Chelsea Heights", "postcode": "3196", "region": "Bayside"},
  {"name": "Cheltenham", "postcode": "3192", "region": "Bayside"},
  {"name": "Chirnside Park", "postcode": "3116", "region": "Eastern Melbourne"},
  {"name": "Clayton", "postcode": "3168", "region": "South Eastern Melbourne"},
  {"name": "Clayton South", "postcode": "3169", "region": "South Eastern Melbourne"},
  {"name": "Clifton Hill", "postcode": "3068", "region": "Inner Melbourne"},
  {"name": "Coburg", "postcode": "3058", "region": "Northern Melbourne"},
  {"name": "Coburg North", "postcode": "3058", "region": "Northern Melbourne"},
  {"name": "Collingwood", "postcode": "3066", "region": "Inner Melbourne"},
  {"name": "Craigieburn", "postcode": "3064", "region": "Northern Melbourne"},
  {"name": "Cranbourne", "postcode": "3977", "region": "South Eastern Melbourne"},
  {"name": "Croydon", "postcode": "3136", "region": "Eastern Melbourne"},
  {"name": "Dallas", "postcode": "3047", "region": "Northern Melbourne"},
  {"name": "Dandenong", "postcode": "3175", "region": "South Eastern Melbourne"},
  {"name": "Dandenong North", "postcode": "3175", "region": "South Eastern Melbourne"},
  {"name": "Dandenong South", "postcode": "3175", "region": "South Eastern Melbourne"},
  {"name": "Deer Park", "postcode": "3023", "region": "Western Melbourne"},
  {"name": "Derrimut", "postcode": "3030", "region": "Western Melbourne"},
  {"name": "Dingley Village", "postcode": "3172", "region": "Bayside"},
  {"name": "Docklands", "postcode": "3008", "region": "Inner Melbourne"},
  {"name": "Doncaster", "postcode": "3108", "region": "Eastern Melbourne"},
  {"name": "Doncaster East", "postcode": "3109", "region": "Eastern Melbourne"},
  {"name": "Donvale", "postcode": "3111", "region": "Eastern Melbourne"},
  {"name": "Doveton", "postcode": "3177", "region": "South Eastern Melbourne"},
  {"name": "East Melbourne", "postcode": "3002", "region": "Inner Melbourne"},
  {"name": "Edithvale", "postcode": "3196", "region": "Bayside"},
  {"name": "Elsternwick", "postcode": "3185", "region": "Bayside"},
  {"name": "Eltham", "postcode": "3095", "region": "North Eastern Melbourne"},
  {"name": "Elwood", "postcode": "3184", "region": "Bayside"},
  {"name": "Emerald", "postcode": "3782", "region": "Eastern Melbourne"},
  {"name": "Endeavour Hills", "postcode": "3802", "region": "South Eastern Melbourne"},
  {"name": "Epping", "postcode": "3076", "region": "Northern Melbourne"},
  {"name": "Essendon", "postcode": "3040", "region": "Western Melbourne"},
  {"name": "Essendon North", "postcode": "3041", "region": "Western Melbourne"},
  {"name": "Essendon West", "postcode": "3040", "region": "Western Melbourne"},
  {"name": "Fairfield", "postcode": "3078", "region": "Inner Melbourne"},
  {"name": "Fawkner", "postcode": "3060", "region": "Northern Melbourne"},
  {"name": "Ferntree Gully", "postcode": "3156", "region": "Eastern Melbourne"},
  {"name": "Fitzroy", "postcode": "3065", "region": "Inner Melbourne"},
  {"name": "Fitzroy North", "postcode": "3068", "region": "Inner Melbourne"},
  {"name": "Flemington", "postcode": "3031", "region": "Inner Melbourne"},
  {"name": "Footscray", "postcode": "3011", "region": "Western Melbourne"},
  {"name": "Forest Hill", "postcode": "3131", "region": "Eastern Melbourne"},
  {"name": "Frankston", "postcode": "3199", "region": "Bayside"},
  {"name": "Glen Huntly", "postcode": "3163", "region": "South Eastern Melbourne"},
  {"name": "Glen Iris", "postcode": "3146", "region": "Inner Melbourne"},
  {"name": "Glen Waverley", "postcode": "3150", "region": "Eastern Melbourne"},
  {"name": "Glenroy", "postcode": "3046", "region": "Northern Melbourne"},
  {"name": "Greensborough", "postcode": "3088", "region": "North Eastern Melbourne"},
  {"name": "Greenvale", "postcode": "3059", "region": "Northern Melbourne"},
  {"name": "Hadfield", "postcode": "3046", "region": "Northern Melbourne"},
  {"name": "Hallam", "postcode": "3803", "region": "South Eastern Melbourne"},
  {"name": "Hampton", "postcode": "3188", "region": "Bayside"},
  {"name": "Hampton East", "postcode": "3188", "region": "Bayside"},
  {"name": "Hampton Park", "postcode": "3976", "region": "South Eastern Melbourne"},
  {"name": "Hawthorn", "postcode": "3122", "region": "Inner Melbourne"},
  {"name": "Hawthorn East", "postcode": "3123", "region": "Inner Melbourne"},
  {"name": "Heatherton", "postcode": "3202", "region": "Bayside"},
  {"name": "Heathmont", "postcode": "3135", "region": "Eastern Melbourne"},
  {"name": "Heidelberg", "postcode": "3084", "region": "North Eastern Melbourne"},
  {"name": "Heidelberg Heights", "postcode": "3081", "region": "North Eastern Melbourne"},
  {"name": "Heidelberg West", "postcode": "3081", "region": "North Eastern Melbourne"},
  {"name": "Highett", "postcode": "3190", "region": "Bayside"},
  {"name": "Hughesdale", "postcode": "3166", "region": "South Eastern Melbourne"},
  {"name": "Huntingdale", "postcode": "3166", "region": "South Eastern Melbourne"},
  {"name": "Ivanhoe", "postcode": "3079", "region": "North Eastern Melbourne"},
  {"name": "Ivanhoe East", "postcode": "3079", "region": "North Eastern Melbourne"},
  {"name": "Jacana", "postcode": "3047", "region": "Northern Melbourne"},
  {"name": "Kangaroo Ground", "postcode": "3097", "region": "North Eastern Melbourne"},
  {"name": "Keilor", "postcode": "3036", "region": "Western Melbourne"},
  {"name": "Keilor Downs", "postcode": "3038", "region": "Western Melbourne"},
  {"name": "Keilor East", "postcode": "3033", "region": "Western Melbourne"},
  {"name": "Keilor Park", "postcode": "3042", "region": "Western Melbourne"},
  {"name": "Kensington", "postcode": "3031", "region": "Inner Melbourne"},
  {"name": "Kew", "postcode": "3101", "region": "Inner Melbourne"},
  {"name": "Kew East", "postcode": "3102", "region": "Inner Melbourne"},
  {"name": "Keysborough", "postcode": "3173", "region": "South Eastern Melbourne"},
  {"name": "Kilsyth", "postcode": "3137", "region": "Eastern Melbourne"},
  {"name": "Knoxfield", "postcode": "3180", "region": "Eastern Melbourne"},
  {"name": "Kooyong", "postcode": "3144", "region": "Inner Melbourne"},
  {"name": "Lalor", "postcode": "3075", "region": "Northern Melbourne"},
  {"name": "Laverton", "postcode": "3028", "region": "Western Melbourne"},
  {"name": "Lilydale", "postcode": "3140", "region": "Eastern Melbourne"},
  {"name": "Lower Plenty", "postcode": "3093", "region": "North Eastern Melbourne"},
  {"name": "Lynbrook", "postcode": "3975", "region": "South Eastern Melbourne"},
  {"name": "Lyndhurst", "postcode": "3975", "region": "South Eastern Melbourne"},
  {"name": "Macleod", "postcode": "3085", "region": "North Eastern Melbourne"},
  {"name": "Maidstone", "postcode": "3012", "region": "Western Melbourne"},
  {"name": "Malvern", "postcode": "3144", "region": "Inner Melbourne"},
  {"name": "Malvern East", "postcode": "3145", "region": "Inner Melbourne"},
  {"name": "Maribyrnong", "postcode": "3032", "region": "Western Melbourne"},
  {"name": "McKinnon", "postcode": "3204", "region": "Bayside"},
  {"name": "Melbourne City", "postcode": "3000", "region": "Inner Melbourne"},
  {"name": "Melton", "postcode": "3337", "region": "Western Melbourne"},
  {"name": "Mentone", "postcode": "3194", "region": "Bayside"},
  {"name": "Mernda", "postcode": "3754", "region": "Northern Melbourne"},
  {"name": "Middle Park", "postcode": "3206", "region": "Inner Melbourne"},
  {"name": "Mill Park", "postcode": "3082", "region": "Northern Melbourne"},
  {"name": "Mitcham", "postcode": "3132", "region": "Eastern Melbourne"},
  {"name": "Mont Albert", "postcode": "3127", "region": "Eastern Melbourne"},
  {"name": "Mont Albert North", "postcode": "3129", "region": "Eastern Melbourne"},
  {"name": "Montmorency", "postcode": "3094", "region": "North Eastern Melbourne"},
  {"name": "Montrose", "postcode": "3765", "region": "Eastern Melbourne"},
  {"name": "Moonee Ponds", "postcode": "3039", "region": "Western Melbourne"},
  {"name": "Moorabbin", "postcode": "3189", "region": "Bayside"},
  {"name": "Mooroolbark", "postcode": "3138", "region": "Eastern Melbourne"},
  {"name": "Mordialloc", "postcode": "3195", "region": "Bayside"},
  {"name": "Mount Waverley", "postcode": "3149", "region": "Eastern Melbourne"},
  {"name": "Mulgrave", "postcode": "3170", "region": "South Eastern Melbourne"},
  {"name": "Murrumbeena", "postcode": "3163", "region": "South Eastern Melbourne"},
  {"name": "Narre Warren", "postcode": "3805", "region": "South Eastern Melbourne"},
  {"name": "Newport", "postcode": "3015", "region": "Western Melbourne"},
  {"name": "Niddrie", "postcode": "3042", "region": "Western Melbourne"},
  {"name": "Noble Park", "postcode": "3174", "region": "South Eastern Melbourne"},
  {"name": "Noble Park North", "postcode": "3174", "region": "South Eastern Melbourne"},
  {"name": "North Melbourne", "postcode": "3051", "region": "Inner Melbourne"},
  {"name": "Northcote", "postcode": "3070", "region": "Inner Melbourne"},
  {"name": "Notting Hill", "postcode": "3168", "region": "South Eastern Melbourne"},
  {"name": "Nunawading", "postcode": "3131", "region": "Eastern Melbourne"},
  {"name": "Oak Park", "postcode": "3046", "region": "Northern Melbourne"},
  {"name": "Oakleigh", "postcode": "3166", "region": "South Eastern Melbourne"},
  {"name": "Oakleigh East", "postcode": "3166", "region": "South Eastern Melbourne"},
  {"name": "Oakleigh South", "postcode": "3167", "region": "South Eastern Melbourne"},
  {"name": "Ormond", "postcode": "3204", "region": "Bayside"},
  {"name": "Pakenham", "postcode": "3810", "region": "South Eastern Melbourne"},
  {"name": "Parkdale", "postcode": "3195", "region": "Bayside"},
  {"name": "Parkville", "postcode": "3052", "region": "Inner Melbourne"},
  {"name": "Pascoe Vale", "postcode": "3044", "region": "Northern Melbourne"},
  {"name": "Pascoe Vale South", "postcode": "3044", "region": "Northern Melbourne"},
  {"name": "Patterson Lakes", "postcode": "3197", "region": "Bayside"},
  {"name": "Point Cook", "postcode": "3030", "region": "Western Melbourne"},
  {"name": "Port Melbourne", "postcode": "3207", "region": "Inner Melbourne"},
  {"name": "Prahran", "postcode": "3181", "region": "Inner Melbourne"},
  {"name": "Preston", "postcode": "3072", "region": "Northern Melbourne"},
  {"name": "Reservoir", "postcode": "3073", "region": "Northern Melbourne"},
  {"name": "Richmond", "postcode": "3121", "region": "Inner Melbourne"},
  {"name": "Ringwood", "postcode": "3134", "region": "Eastern Melbourne"},
  {"name": "Ringwood East", "postcode": "3135", "region": "Eastern Melbourne"},
  {"name": "Ringwood North", "postcode": "3134", "region": "Eastern Melbourne"},
  {"name": "Ripponlea", "postcode": "3185", "region": "Inner Melbourne"},
  {"name": "Rosanna", "postcode": "3084", "region": "North Eastern Melbourne"},
  {"name": "Rowville", "postcode": "3178", "region": "Eastern Melbourne"},
  {"name": "Roxburgh Park", "postcode": "3064", "region": "Northern Melbourne"},
  {"name": "Sandringham", "postcode": "3191", "region": "Bayside"},
  {"name": "Scoresby", "postcode": "3179", "region": "Eastern Melbourne"},
  {"name": "Seaford", "postcode": "3198", "region": "Bayside"},
  {"name": "Seddon", "postcode": "3011", "region": "Western Melbourne"},
  {"name": "Seville", "postcode": "3139", "region": "Eastern Melbourne"},
  {"name": "Skye", "postcode": "3977", "region": "South Eastern Melbourne"},
  {"name": "South Melbourne", "postcode": "3205", "region": "Inner Melbourne"},
  {"name": "South Morang", "postcode": "3752", "region": "Northern Melbourne"},
  {"name": "South Yarra", "postcode": "3141", "region": "Inner Melbourne"},
  {"name": "Southbank", "postcode": "3006", "region": "Inner Melbourne"},
  {"name": "Spotswood", "postcode": "3015", "region": "Western Melbourne"},
  {"name": "Springvale", "postcode": "3171", "region": "South Eastern Melbourne"},
  {"name": "Springvale South", "postcode": "3172", "region": "South Eastern Melbourne"},
  {"name": "St Albans", "postcode": "3021", "region": "Western Melbourne"},
  {"name": "St Kilda", "postcode": "3182", "region": "Inner Melbourne"},
  {"name": "St Kilda East", "postcode": "3183", "region": "Inner Melbourne"},
  {"name": "St Kilda West", "postcode": "3182", "region": "Inner Melbourne"},
  {"name": "Strathmore", "postcode": "3041", "region": "Western Melbourne"},
  {"name": "Sunshine", "postcode": "3020", "region": "Western Melbourne"},
  {"name": "Sunshine North", "postcode": "3020", "region": "Western Melbourne"},
  {"name": "Sunshine West", "postcode": "3020", "region": "Western Melbourne"},
  {"name": "Surrey Hills", "postcode": "3127", "region": "Eastern Melbourne"},
  {"name": "Sydenham", "postcode": "3037", "region": "Western Melbourne"},
  {"name": "Tarneit", "postcode": "3029", "region": "Western Melbourne"},
  {"name": "Taylors Lakes", "postcode": "3038", "region": "Western Melbourne"},
  {"name": "Templestowe", "postcode": "3106", "region": "Eastern Melbourne"},
  {"name": "Templestowe Lower", "postcode": "3107", "region": "Eastern Melbourne"},
  {"name": "The Basin", "postcode": "3154", "region": "Eastern Melbourne"},
  {"name": "Thomastown", "postcode": "3074", "region": "Northern Melbourne"},
  {"name": "Thornbury", "postcode": "3071", "region": "Northern Melbourne"},
  {"name": "Toorak", "postcode": "3142", "region": "Inner Melbourne"},
  {"name": "Travancore", "postcode": "3032", "region": "Inner Melbourne"},
  {"name": "Truganina", "postcode": "3029", "region": "Western Melbourne"},
  {"name": "Tullamarine", "postcode": "3043", "region": "Western Melbourne"},
  {"name": "Vermont", "postcode": "3133", "region": "Eastern Melbourne"},
  {"name": "Vermont South", "postcode": "3133", "region": "Eastern Melbourne"},
  {"name": "Viewbank", "postcode": "3084", "region": "North Eastern Melbourne"},
  {"name": "Wantirna", "postcode": "3152", "region": "Eastern Melbourne"},
  {"name": "Wantirna South", "postcode": "3152", "region": "Eastern Melbourne"},
  {"name": "Warrandyte", "postcode": "3113", "region": "Eastern Melbourne"},
  {"name": "Waterways", "postcode": "3195", "region": "Bayside"},
  {"name": "Watsonia", "postcode": "3087", "region": "North Eastern Melbourne"},
  {"name": "Watsonia North", "postcode": "3087", "region": "North Eastern Melbourne"},
  {"name": "Wattle Glen", "postcode": "3096", "region": "North Eastern Melbourne"},
  {"name": "Werribee", "postcode": "3030", "region": "Western Melbourne"},
  {"name": "West Footscray", "postcode": "3012", "region": "Western Melbourne"},
  {"name": "West Melbourne", "postcode": "3003", "region": "Inner Melbourne"},
  {"name": "Westmeadows", "postcode": "3049", "region": "Northern Melbourne"},
  {"name": "Wheelers Hill", "postcode": "3150", "region": "Eastern Melbourne"},
  {"name": "Williams Landing", "postcode": "3027", "region": "Western Melbourne"},
  {"name": "Williamstown", "postcode": "3016", "region": "Western Melbourne"},
  {"name": "Williamstown North", "postcode": "3016", "region": "Western Melbourne"},
  {"name": "Windsor", "postcode": "3181", "region": "Inner Melbourne"},
  {"name": "Wollert", "postcode": "3750", "region": "Northern Melbourne"},
  {"name": "Yarraville", "postcode": "3013", "region": "Western Melbourne"}
]